[{"OBJECT_NAME":"STARLINK-30940","OBJECT_ID":"2023-180H","EPOCH":"2026-03-09T20:01:05.080512","MEAN_MOTION":15.27570165,"ECCENTRICITY":0.00022806,"INCLINATION":43.0025,"RA_OF_ASC_NODE":266.649,"ARG_OF_PERICENTER":277.2266,"MEAN_ANOMALY":82.8327,"EPHEMERIS_TYPE":0,"CLASSIFICATION_TYPE":"U","NORAD_CAT_ID":58409,"ELEMENT_SET_NO":999,"REV_AT_EPOCH":12935,"BSTAR":-9.0927856e-5,"MEAN_MOTION_DOT":-2.763e-5,"MEAN_MOTION_DDOT":0},{"OBJECT_NAME":"XCUBE-1","OBJECT_ID":"2024-247Z","EPOCH":"2026-03-09T11:35:28.885344","MEAN_MOTION":15.27910558,"ECCENTRICITY":0.00052355,"INCLINATION":44.9938,"RA_OF_ASC_NODE":117.7807,"ARG_OF_PERICENTER":331.1499,"MEAN_ANOMALY":28.9094,"EPHEMERIS_TYPE":0,"CLASSIFICATION_TYPE":"U","NORAD_CAT_ID":62400,"ELEMENT_SET_NO":999,"REV_AT_EPOCH":6770,"BSTAR":0.00036224252,"MEAN_MOTION_DOT":9.773e-5,"MEAN_MOTION_DDOT":0}]
